{
"type": "FeatureCollection",
"name": "small_parks_modified",
"crs": { "type": "name", "properties": { "name": "urn:ogc:def:crs:OGC:1.3:CRS84" } },
"features": [
{ "type": "Feature", "properties": { ":id": "row-ugix_fjq9-jf6g", ":version": "rv-t9zn~ansa.wymz", ":created_at": "2024-12-06T17:43:47.558Z", ":updated_at": "2025-11-19T14:52:33.748Z", "acquisitiondate": "1916-11-16T00:00:00", "acres": "0.005", "address": "601 MEEKER AVENUE", "borough": "B", "class": "PARK", "communityboard": "301", "councildistrict": "33", "department": "B-01", "eapply": "Fidelity Triangle", "gisobjid": "100004431", "gispropnum": "B031", "globalid": "9D635F8B-7CF4-4469-B550-6CB1AF70D337", "jurisdiction": "DPR", "location": "Monitor St. bet. Engert Ave. and Meeker Ave.", "mapped": "False", "name311": "Fidelity Triangle", "nys_assembly": "50", "nys_senate": "59", "objectid": "170167", "omppropid": "B031", "parentid": "B-01", "permit": 1.0, "permitdistrict": "B-01", "permitparent": "B-01", "pip_ratable": 1.0, "precinct": "94", "retired": false, "signname": "Fidelity Triangle", "subcategory": "Sitting Area/Triangle/Mall", "typecategory": "Triangle/Plaza", "us_congress": "7", "waterfront": false, "zipcode": "11222", "osm_fixed": true, "osm_fix_message": "Matched with OSM 'Fidelity Memorial Park' (overlap: 37.7%)" }, "geometry": { "type": "MultiPolygon", "coordinates": [ [ [ [ -73.9418885, 40.7218962 ], [ -73.9417554, 40.7219062 ], [ -73.9418732, 40.7218273 ], [ -73.9418885, 40.7218962 ] ] ] ] } },
{ "type": "Feature", "properties": { ":id": "row-apz9_cx2f_g9fu", ":version": "rv-q6j7.ecgh_7p7e", ":created_at": "2024-12-06T17:43:47.558Z", ":updated_at": "2025-11-19T14:52:33.748Z", "acquisitiondate": "1936-06-05T00:00:00", "acres": "0.013", "address": null, "borough": "Q", "class": "PARK", "communityboard": "405", "councildistrict": "34", "department": "Q-05", "eapply": "Myrtle Avenue Clemens Triangle  / Ridgewood Veterans Triangle (OLD)", "gisobjid": "100000162", "gispropnum": "Q124", "globalid": "A11DC183-13FD-4A25-949E-B7A782B732CB", "jurisdiction": "DPR", "location": "Myrtle Ave., Cypress Ave., Putnam Ave.", "mapped": "False", "name311": "Myrtle Avenue Clemens Triangle", "nys_assembly": "38", "nys_senate": "18", "objectid": "169908", "omppropid": "Q124", "parentid": "Q-05", "permit": 1.0, "permitdistrict": "Q-05", "permitparent": "Q-05", "pip_ratable": 1.0, "precinct": "104", "retired": false, "signname": "Myrtle Avenue Clemens Triangle", "subcategory": "Sitting Area/Triangle/Mall", "typecategory": "Triangle/Plaza", "us_congress": "7", "waterfront": false, "zipcode": "11385", "osm_fixed": true, "osm_fix_message": "Matched with OSM 'Myrtle Avenue Clemens Triangle' (overlap: 100.0%)" }, "geometry": { "type": "MultiPolygon", "coordinates": [ [ [ [ -73.9069974, 40.7001278 ], [ -73.9069736, 40.7001301 ], [ -73.9064805, 40.7001786 ], [ -73.9067697, 40.7003324 ], [ -73.9067836, 40.7003398 ], [ -73.9069974, 40.7001278 ] ] ] ] } },
{ "type": "Feature", "properties": { ":id": "row-yx4a~97r8.a7xt", ":version": "rv-wwie_85nr_egvx", ":created_at": "2024-12-06T17:43:47.558Z", ":updated_at": "2025-11-19T14:52:33.748Z", "acquisitiondate": "1923-10-23T00:00:00", "acres": "0.005", "address": null, "borough": "B", "class": "PARK", "communityboard": "312", "councildistrict": "44", "department": "B-12", "eapply": "Alben Square", "gisobjid": "100004468", "gispropnum": "B123", "globalid": "317F9574-1BDC-48C3-9990-7C2A6984A13F", "jurisdiction": "DPR", "location": "46 St., 11 Ave., New Utrecht Ave.", "mapped": "False", "name311": "Alben Square", "nys_assembly": "48", "nys_senate": "22", "objectid": "169864", "omppropid": "B123", "parentid": "B-12", "permit": 1.0, "permitdistrict": "B-12", "permitparent": "B-12", "pip_ratable": 1.0, "precinct": "66", "retired": false, "signname": "Alben Square", "subcategory": "Sitting Area/Triangle/Mall", "typecategory": "Triangle/Plaza", "us_congress": "10", "waterfront": false, "zipcode": "11219", "osm_fixed": true, "osm_fix_message": "Matched with OSM 'Alben Square' (overlap: 100.0%)" }, "geometry": { "type": "MultiPolygon", "coordinates": [ [ [ [ -73.9945025, 40.6394965 ], [ -73.9945119, 40.6394965 ], [ -73.9945226, 40.6394884 ], [ -73.9946259, 40.6393907 ], [ -73.9946332, 40.6393776 ], [ -73.9946339, 40.6393673 ], [ -73.9945347, 40.6393113 ], [ -73.9945239, 40.6393144 ], [ -73.9945178, 40.6393237 ], [ -73.9944971, 40.6394874 ], [ -73.9945025, 40.6394965 ] ] ] ] } },
{ "type": "Feature", "properties": { ":id": "row-rbs7.wef6.wevd", ":version": "rv-k3kj-y96p~8uv5", ":created_at": "2024-12-06T17:43:47.558Z", ":updated_at": "2025-11-19T14:52:33.748Z", "acquisitiondate": "1934-07-20T00:00:00", "acres": "0.001", "address": null, "borough": "B", "class": "PARK", "communityboard": "315", "councildistrict": "48", "department": "B-15", "eapply": "Sgt. Joyce Kilmer Square", "gisobjid": "100003699", "gispropnum": "B094", "globalid": "51C71228-38D1-4A7B-9E2C-81B05E98F9B3", "jurisdiction": "DPR", "location": "E. 12 St., Kings Hwy., Quentin Rd.", "mapped": "False", "name311": "Sgt. Joyce Kilmer Square", "nys_assembly": "45", "nys_senate": "22", "objectid": "169851", "omppropid": "B094", "parentid": "B-15", "permit": 1.0, "permitdistrict": "B-15", "permitparent": "B-15", "pip_ratable": 1.0, "precinct": "61", "retired": false, "signname": "Sgt. Joyce Kilmer Square", "subcategory": "Sitting Area/Triangle/Mall", "typecategory": "Triangle/Plaza", "us_congress": "9", "waterfront": false, "zipcode": "11229", "osm_fixed": true, "osm_fix_message": "Matched with OSM 'Sgt. Joyce Kilmer Square' (overlap: 100.0%)" }, "geometry": { "type": "MultiPolygon", "coordinates": [ [ [ [ -73.9608477, 40.6079095 ], [ -73.9608165, 40.6078211 ], [ -73.9605154, 40.6079223 ], [ -73.9605096, 40.6079271 ], [ -73.9605088, 40.6079339 ], [ -73.9605129, 40.6079407 ], [ -73.9605239, 40.6079449 ], [ -73.9605355, 40.6079452 ], [ -73.9608477, 40.6079095 ] ] ] ] } },
{ "type": "Feature", "properties": { ":id": "row-nzjh~3md4-m5su", ":version": "rv-hpfs~y89i.65p8", ":created_at": "2024-12-06T17:43:47.558Z", ":updated_at": "2025-11-19T14:52:33.748Z", "acquisitiondate": "1924-01-01T00:00:00", "acres": "0.02", "address": null, "borough": "Q", "class": "PARK", "communityboard": "409", "councildistrict": "29", "department": "Q-09", "eapply": "Metro Triangle", "gisobjid": "100000373", "gispropnum": "Q157", "globalid": "B2939B66-E84D-4823-AD29-E3862CFD1C9A", "jurisdiction": "DPR", "location": "125 St.,  85 Ave., Metropolitan Ave.", "mapped": "False", "name311": "Metro Triangle", "nys_assembly": "28", "nys_senate": "14", "objectid": "169758", "omppropid": "Q157", "parentid": "Q-09", "permit": 0.0, "permitdistrict": "Q-09", "permitparent": "Q-09", "pip_ratable": 1.0, "precinct": "102", "retired": false, "signname": "Metro Triangle", "subcategory": "Type 1", "typecategory": "Triangle/Plaza", "us_congress": "5", "waterfront": false, "zipcode": "11415", "osm_fixed": true, "osm_fix_message": "Matched with OSM 'Metro Triangle' (overlap: 100.0%)" }, "geometry": { "type": "MultiPolygon", "coordinates": [ [ [ [ -73.8263533, 40.7045181 ], [ -73.8260613, 40.7044316 ], [ -73.8263098, 40.7043589 ], [ -73.8263533, 40.7045181 ] ] ] ] } },
{ "type": "Feature", "properties": { ":id": "row-8ttk-59ga.xbt7", ":version": "rv-44kz.qz5r_3mwi", ":created_at": "2024-12-06T17:43:47.558Z", ":updated_at": "2025-11-19T14:52:33.748Z", "acquisitiondate": "1932-06-14T00:00:00", "acres": "0.002", "address": null, "borough": "Q", "class": "PARK", "communityboard": "401", "councildistrict": "22", "department": "Q-01", "eapply": "Dwyer Square", "gisobjid": "100000352", "gispropnum": "Q232", "globalid": "32D96532-A8C7-4866-9428-A3AEC5F1E887", "jurisdiction": "DPR", "location": "Northern Blvd., 34 Ave. bet. 47 St. and 48 St.", "mapped": "False", "name311": "Dwyer Square", "nys_assembly": "34", "nys_senate": "12", "objectid": "169775", "omppropid": "Q232", "parentid": "Q-01", "permit": 0.0, "permitdistrict": "Q-01", "permitparent": "Q-01", "pip_ratable": 1.0, "precinct": "114", "retired": false, "signname": "Dwyer Square", "subcategory": "Sitting Area/Triangle/Mall", "typecategory": "Triangle/Plaza", "us_congress": "7", "waterfront": false, "zipcode": "11101", "osm_fixed": true, "osm_fix_message": "Matched with OSM 'Dwyer Square' (overlap: 100.0%)" }, "geometry": { "type": "MultiPolygon", "coordinates": [ [ [ [ -73.9153131, 40.7538761 ], [ -73.9152363, 40.7540119 ], [ -73.915231, 40.7540179 ], [ -73.9148382, 40.7538165 ], [ -73.9152911, 40.7538733 ], [ -73.9153131, 40.7538761 ] ] ] ] } },
{ "type": "Feature", "properties": { ":id": "row-nebb~ym7k-iyx3", ":version": "rv-sie7-pzju_6qtt", ":created_at": "2024-12-06T17:43:47.558Z", ":updated_at": "2025-11-19T14:52:33.748Z", "acquisitiondate": "1920-11-11T00:00:00", "acres": "0.027", "address": null, "borough": "Q", "class": "PARK", "communityboard": "406", "councildistrict": "30", "department": "Q-06", "eapply": "Triangle", "gisobjid": "100000468", "gispropnum": "Q062", "globalid": "442274F3-1C67-4CE8-B617-E7BA49E385B3", "jurisdiction": "DPR", "location": "Woodhaven Blvd., 63 Dr., Penelope Ave.", "mapped": "True", "name311": "Fleetwood Triangle", "nys_assembly": "28", "nys_senate": "15", "objectid": "169743", "omppropid": "Q062", "parentid": "Q-06", "permit": 0.0, "permitdistrict": "Q-06", "permitparent": "Q-06", "pip_ratable": 1.0, "precinct": "112", "retired": false, "signname": "Fleetwood Triangle", "subcategory": "Sitting Area/Triangle/Mall", "typecategory": "Triangle/Plaza", "us_congress": "6", "waterfront": false, "zipcode": "11374", "osm_fixed": true, "osm_fix_message": "Matched with OSM 'Fleetwood Triangle' (overlap: 100.0%)" }, "geometry": { "type": "MultiPolygon", "coordinates": [ [ [ [ -73.8672571, 40.7225774 ], [ -73.867249, 40.7225713 ], [ -73.8672397, 40.7225723 ], [ -73.8672276, 40.7225794 ], [ -73.8670264, 40.7228793 ], [ -73.867359, 40.7227136 ], [ -73.8673618, 40.7227048 ], [ -73.867359, 40.7226953 ], [ -73.8672571, 40.7225774 ] ] ] ] } },
{ "type": "Feature", "properties": { ":id": "row-4zsg-7ji2.pm6w", ":version": "rv-u2jm.me6z-f5vi", ":created_at": "2024-12-06T17:43:47.558Z", ":updated_at": "2025-11-19T14:52:33.748Z", "acquisitiondate": "1924-09-10T00:00:00", "acres": "0.003", "address": null, "borough": "Q", "class": "PARK", "communityboard": "404", "councildistrict": "25", "department": "Q-04", "eapply": "Dunningham Triangle", "gisobjid": "100000464", "gispropnum": "Q058", "globalid": "1DC6419C-62DF-4BE2-B395-8B14263E84AD", "jurisdiction": "DPR", "location": "82 St., Ithaca St., Baxter Ave.", "mapped": "True", "name311": "Dunningham Triangle", "nys_assembly": "39", "nys_senate": "13", "objectid": "169742", "omppropid": "Q058", "parentid": "Q-04", "permit": 1.0, "permitdistrict": "Q-04", "permitparent": "Q-04", "pip_ratable": 1.0, "precinct": "110", "retired": false, "signname": "Dunningham Triangle", "subcategory": "Sitting Area/Triangle/Mall", "typecategory": "Triangle/Plaza", "us_congress": "6", "waterfront": false, "zipcode": "11373", "osm_fixed": true, "osm_fix_message": "Matched with OSM 'Dunningham Triangle' (overlap: 100.0%)" }, "geometry": { "type": "MultiPolygon", "coordinates": [ [ [ [ -73.8836343, 40.7464649 ], [ -73.8835078, 40.7464139 ], [ -73.8836126, 40.7462643 ], [ -73.8836343, 40.7464649 ] ] ] ] } },
{ "type": "Feature", "properties": { ":id": "row-vg2j.x4qa~ptrw", ":version": "rv-agk3_37we_nt4i", ":created_at": "2024-12-06T17:43:47.558Z", ":updated_at": "2025-11-19T14:52:33.748Z", "acquisitiondate": "1919-07-17T00:00:00", "acres": "0.01", "address": null, "borough": "Q", "class": "PARK", "communityboard": "405", "councildistrict": "34", "department": "Q-05", "eapply": "Clemens Triangle", "gisobjid": "100000463", "gispropnum": "Q056", "globalid": "45E4510D-35EC-4951-9769-238BA9AAA0AC", "jurisdiction": "DPR", "location": "Myrtle Ave., Cypress Ave., Cornelia St.", "mapped": "True", "name311": "Clemens Triangle", "nys_assembly": "38", "nys_senate": "18", "objectid": "169741", "omppropid": "Q056", "parentid": "Q-05", "permit": 0.0, "permitdistrict": "Q-05", "permitparent": "Q-05", "pip_ratable": 1.0, "precinct": "104", "retired": false, "signname": "Clemens Triangle", "subcategory": "Sitting Area/Triangle/Mall", "typecategory": "Triangle/Plaza", "us_congress": "7", "waterfront": false, "zipcode": "11385", "osm_fixed": true, "osm_fix_message": "Matched with OSM 'Clemens Triangle' (overlap: 13.7%)" }, "geometry": { "type": "MultiPolygon", "coordinates": [ [ [ [ -73.9057419, 40.7001398 ], [ -73.9057647, 40.7001168 ], [ -73.9058626, 40.7000181 ], [ -73.9058839, 40.6999967 ], [ -73.9059123, 40.7000126 ], [ -73.9060704, 40.700101 ], [ -73.9060697, 40.7001111 ], [ -73.9060396, 40.7001179 ], [ -73.9057607, 40.7001509 ], [ -73.9057433, 40.700146 ], [ -73.9057419, 40.7001398 ] ] ] ] } },
{ "type": "Feature", "properties": { ":id": "row-teye-5c89-najb", ":version": "rv-yxaj-vug2~5vmu", ":created_at": "2024-12-06T17:43:47.558Z", ":updated_at": "2025-11-19T14:52:33.748Z", "acquisitiondate": "1874-11-04T00:00:00", "acres": "0.01", "address": null, "borough": "Q", "class": "PARK", "communityboard": "402", "councildistrict": "26", "department": "Q-02", "eapply": "McKenna Triangle", "gisobjid": "100000174", "gispropnum": "Q032", "globalid": "DEB8B3BB-BAC1-45B7-8273-4F733DE0BC43", "jurisdiction": "DPR", "location": "Jackson Ave.,  Court Sq., 45 Ave.", "mapped": "False", "name311": "McKenna Triangle", "nys_assembly": "36", "nys_senate": "59", "objectid": "169724", "omppropid": "Q032", "parentid": "Q-02", "permit": 1.0, "permitdistrict": "Q-02", "permitparent": "Q-02", "pip_ratable": 1.0, "precinct": "108", "retired": false, "signname": "McKenna Triangle", "subcategory": "Sitting Area/Triangle/Mall", "typecategory": "Triangle/Plaza", "us_congress": "7", "waterfront": false, "zipcode": "11101", "osm_fixed": true, "osm_fix_message": "Matched with OSM 'McKenna Triangle' (overlap: 8.0%)" }, "geometry": { "type": "MultiPolygon", "coordinates": [ [ [ [ -73.9442888, 40.7466372 ], [ -73.9440588, 40.7465944 ], [ -73.9443371, 40.7464787 ], [ -73.9442888, 40.7466372 ] ] ] ] } },
{ "type": "Feature", "properties": { ":id": "row-5ptx.dtp6-spm9", ":version": "rv-p7qt.ddaz_i2ds", ":created_at": "2024-12-06T17:43:47.558Z", ":updated_at": "2025-11-19T14:52:33.748Z", "acquisitiondate": "1935-03-15T00:00:00", "acres": "0.03", "address": null, "borough": "Q", "class": "PARK", "communityboard": "404", "councildistrict": "25", "department": "Q-04", "eapply": "Libra Triangle", "gisobjid": "100000092", "gispropnum": "Q152", "globalid": "9EFF4CF2-516E-4AD0-BB74-029470D8A6D6", "jurisdiction": "DPR", "location": "Justice Ave., 90 St., 56 Ave.", "mapped": "True", "name311": "Horsebrook Island", "nys_assembly": "39", "nys_senate": "12", "objectid": "169337", "omppropid": "Q152", "parentid": "Q-04", "permit": 0.0, "permitdistrict": "Q-04", "permitparent": "Q-04", "pip_ratable": 1.0, "precinct": "110", "retired": false, "signname": "Horsebrook Island", "subcategory": "Sitting Area/Triangle/Mall", "typecategory": "Triangle/Plaza", "us_congress": "6", "waterfront": false, "zipcode": "11373", "osm_fixed": true, "osm_fix_message": "Matched with OSM 'Horsebrook Island' (overlap: 100.0%)" }, "geometry": { "type": "MultiPolygon", "coordinates": [ [ [ [ -73.8725721, 40.7358192 ], [ -73.8723013, 40.7359432 ], [ -73.8726223, 40.7359496 ], [ -73.8725721, 40.7358192 ] ] ] ] } },
{ "type": "Feature", "properties": { ":id": "row-u7te.txxg~gmk3", ":version": "rv-scus~5c9j.2ced", ":created_at": "2024-12-06T17:43:47.558Z", ":updated_at": "2025-11-19T14:52:33.748Z", "acquisitiondate": "1922-11-10T00:00:00", "acres": "0.008", "address": null, "borough": "Q", "class": "PARK", "communityboard": "405", "councildistrict": "30", "department": "Q-05", "eapply": "Garlinge Triangle", "gisobjid": "100000167", "gispropnum": "Q019", "globalid": "09754B48-9500-45E2-8D04-8F0D9BB79C10", "jurisdiction": "DPR", "location": "Grand Ave., 57 Ave. bet. 72 Pl and Mazeau St.", "mapped": "False", "name311": "Garlinge Triangle", "nys_assembly": "30", "nys_senate": "12", "objectid": "169183", "omppropid": "Q019", "parentid": "Q-05", "permit": 0.0, "permitdistrict": "Q-05", "permitparent": "Q-05", "pip_ratable": 1.0, "precinct": "104", "retired": false, "signname": "Garlinge Triangle", "subcategory": "Sitting Area/Triangle/Mall", "typecategory": "Triangle/Plaza", "us_congress": "6", "waterfront": false, "zipcode": "11378", "osm_fixed": true, "osm_fix_message": "Matched with OSM 'Garlinge Triangle' (overlap: 10.3%)" }, "geometry": { "type": "MultiPolygon", "coordinates": [ [ [ [ -73.891122, 40.7282588 ], [ -73.8911127, 40.728253 ], [ -73.8910996, 40.7282497 ], [ -73.8907667, 40.7282791 ], [ -73.8907529, 40.7282845 ], [ -73.8907459, 40.7282906 ], [ -73.8907413, 40.7282989 ], [ -73.8907403, 40.7283072 ], [ -73.8907423, 40.7283142 ], [ -73.8907465, 40.7283206 ], [ -73.8908389, 40.7284343 ], [ -73.8908486, 40.7284435 ], [ -73.890862, 40.7284468 ], [ -73.8908756, 40.7284456 ], [ -73.8908915, 40.7284377 ], [ -73.8909116, 40.7284202 ], [ -73.8909413, 40.7283945 ], [ -73.8909913, 40.7283521 ], [ -73.8910439, 40.7283183 ], [ -73.8911216, 40.7282747 ], [ -73.8911245, 40.7282651 ], [ -73.891122, 40.7282588 ] ] ] ] } },
{ "type": "Feature", "properties": { ":id": "row-vd76-qn8k_asmy", ":version": "rv-7wqb~isff~drka", ":created_at": "2024-12-06T17:43:47.558Z", ":updated_at": "2025-11-19T14:52:33.748Z", "acquisitiondate": "1927-08-10T00:00:00", "acres": "0.1", "address": null, "borough": "X", "class": "PARK", "communityboard": "209", "councildistrict": "18", "department": "X-09", "eapply": "Woodrow Wilson Triangle", "gisobjid": "100004417", "gispropnum": "X065", "globalid": "E3CD8B36-E84D-4209-A5F0-73F79B8EB10B", "jurisdiction": "DPR", "location": "Soundview Ave., Underhill Ave., Patterson Ave.", "mapped": "True", "name311": "Woodrow Wilson Triangle", "nys_assembly": "85", "nys_senate": "34", "objectid": "169155", "omppropid": "X065", "parentid": "X-09", "permit": 1.0, "permitdistrict": "X-09", "permitparent": "X-09", "pip_ratable": 1.0, "precinct": "43", "retired": false, "signname": "Woodrow Wilson Triangle", "subcategory": "Sitting Area/Triangle/Mall", "typecategory": "Triangle/Plaza", "us_congress": "14", "waterfront": false, "zipcode": "10473", "osm_fixed": true, "osm_fix_message": "Matched with OSM 'Woodrow Wilson Triangle' (overlap: 100.0%)" }, "geometry": { "type": "MultiPolygon", "coordinates": [ [ [ [ -73.8581523, 40.8135859 ], [ -73.8580032, 40.8134339 ], [ -73.8580182, 40.8134167 ], [ -73.8581416, 40.8134002 ], [ -73.8581765, 40.8135645 ], [ -73.8581523, 40.8135859 ] ] ] ] } },
{ "type": "Feature", "properties": { ":id": "row-tewt.g6s5.hszk", ":version": "rv-xsus~37rn-2ick", ":created_at": "2024-12-06T17:43:47.558Z", ":updated_at": "2025-11-19T14:52:33.748Z", "acquisitiondate": "1924-01-01T00:00:00", "acres": "0.005", "address": null, "borough": "Q", "class": "PARK", "communityboard": "409", "councildistrict": "29", "department": "Q-09", "eapply": "Jacob Riis Triangle", "gisobjid": "100000091", "gispropnum": "Q142", "globalid": "0496D7AE-1FAC-48A7-8B42-848A0DB5FD30", "jurisdiction": "DPR", "location": "Bessemer St., 116 St., 85 Ave.", "mapped": "False", "name311": "Jacob Riis Triangle", "nys_assembly": "24", "nys_senate": "15", "objectid": "169170", "omppropid": "Q142", "parentid": "Q-09", "permit": 1.0, "permitdistrict": "Q-09", "permitparent": "Q-09", "pip_ratable": 1.0, "precinct": "102", "retired": false, "signname": "Jacob Riis Triangle", "subcategory": "Sitting Area/Triangle/Mall", "typecategory": "Triangle/Plaza", "us_congress": "5", "waterfront": false, "zipcode": "11418", "osm_fixed": true, "osm_fix_message": "Matched with OSM 'Jacob Riis Triangle' (overlap: 100.0%)" }, "geometry": { "type": "MultiPolygon", "coordinates": [ [ [ [ -73.8350392, 40.702004 ], [ -73.8348704, 40.7020432 ], [ -73.8347918, 40.7018864 ], [ -73.8347989, 40.7018864 ], [ -73.835026, 40.701983 ], [ -73.8350394, 40.7019898 ], [ -73.8350466, 40.7019937 ], [ -73.8350489, 40.701997 ], [ -73.8350392, 40.702004 ] ] ] ] } },
{ "type": "Feature", "properties": { ":id": "row-8ni5.z4dn.nij8", ":version": "rv-786q-kcui-tjg3", ":created_at": "2024-12-06T17:43:47.558Z", ":updated_at": "2025-11-19T14:52:33.748Z", "acquisitiondate": "1916-03-08T00:00:00", "acres": "0.004", "address": "675 BUSHWICK AVENUE", "borough": "B", "class": "PARK", "communityboard": "304", "councildistrict": "34", "department": "B-04", "eapply": "Freedom Triangle", "gisobjid": "100004519", "gispropnum": "B037", "globalid": "17AE6FB8-71D3-4531-B81F-2BFCAB03C014", "jurisdiction": "DPR", "location": "Bushwick Ave., Myrtle Ave., Willoughby Ave.", "mapped": "False", "name311": "Freedom Triangle", "nys_assembly": "53", "nys_senate": "18", "objectid": "169065", "omppropid": "B037", "parentid": "B-04", "permit": 1.0, "permitdistrict": "B-04", "permitparent": "B-04", "pip_ratable": 1.0, "precinct": "83", "retired": false, "signname": "Freedom Triangle", "subcategory": "Sitting Area/Triangle/Mall", "typecategory": "Triangle/Plaza", "us_congress": "7", "waterfront": false, "zipcode": "11221", "osm_fixed": true, "osm_fix_message": "Matched with OSM 'Freedom Triangle' (overlap: 100.0%)" }, "geometry": { "type": "MultiPolygon", "coordinates": [ [ [ [ -73.9319404, 40.6972727 ], [ -73.9319359, 40.6972311 ], [ -73.9318385, 40.6971759 ], [ -73.9316812, 40.6972703 ], [ -73.9317054, 40.6973043 ], [ -73.9319404, 40.6972727 ] ] ] ] } },
{ "type": "Feature", "properties": { ":id": "row-g9bt-xgu8-t2i8", ":version": "rv-kpmv~jf7q.db55", ":created_at": "2024-12-06T17:43:47.558Z", ":updated_at": "2025-11-19T14:52:33.748Z", "acquisitiondate": null, "acres": "0.031", "address": null, "borough": "B", "class": "PARK", "communityboard": "301", "councildistrict": "34", "department": "B-01", "eapply": null, "gisobjid": null, "gispropnum": "B605", "globalid": "BEBF7BA6-EA0F-4F68-8654-9E5E7877450F", "jurisdiction": "DPR", "location": "Metropolitan Ave., N 4 St., and Roebling St.", "mapped": "False", "name311": "Ascenzi Square", "nys_assembly": "50", "nys_senate": "59", "objectid": "174844", "omppropid": "B605", "parentid": "B-01", "permit": null, "permitdistrict": "B-01", "permitparent": "B-01", "pip_ratable": 0.0, "precinct": "90", "retired": false, "signname": "Ascenzi Square", "subcategory": null, "typecategory": "Triangle/Plaza", "us_congress": "7", "waterfront": false, "zipcode": "11211", "osm_fixed": true, "osm_fix_message": "Matched with OSM '' (overlap: 100.0%)" }, "geometry": { "type": "MultiPolygon", "coordinates": [ [ [ [ -73.957008, 40.7145572 ], [ -73.9571998, 40.7145017 ], [ -73.9567445, 40.714373 ], [ -73.957008, 40.7145572 ] ] ] ] } },
{ "type": "Feature", "properties": { ":id": "row-gika_59qa~36pe", ":version": "rv-trw8~wazz~6eek", ":created_at": "2024-12-06T17:43:47.558Z", ":updated_at": "2025-11-19T14:52:33.748Z", "acquisitiondate": "1914-12-28T00:00:00", "acres": "0.019", "address": "36 GRANT SQUARE", "borough": "B", "class": "PARK", "communityboard": "308", "councildistrict": "36", "department": "B-08", "eapply": "Grant Gore", "gisobjid": "100003696", "gispropnum": "B041", "globalid": "E91EA584-FA63-4B5E-9012-EF876BD58C1C", "jurisdiction": "DPR", "location": "Bedford Ave., Rodgers Ave., Bergen St.", "mapped": "False", "name311": "Grant Gore", "nys_assembly": "57", "nys_senate": "20", "objectid": "170034", "omppropid": "B041", "parentid": "B-08", "permit": 1.0, "permitdistrict": "B-08", "permitparent": "B-08", "pip_ratable": 1.0, "precinct": "77", "retired": false, "signname": "Grant Gore", "subcategory": "Sitting Area/Triangle/Mall", "typecategory": "Triangle/Plaza", "us_congress": "9", "waterfront": false, "zipcode": "11216", "osm_fixed": true, "osm_fix_message": "Matched with OSM '' (overlap: 100.0%)" }, "geometry": { "type": "MultiPolygon", "coordinates": [ [ [ [ -73.9527953, 40.676622 ], [ -73.9527472, 40.6766206 ], [ -73.9527713, 40.6763559 ], [ -73.952885, 40.6763613 ], [ -73.9527953, 40.676622 ] ] ] ] } },
{ "type": "Feature", "properties": { ":id": "row-mp7m-uyq3.tvje", ":version": "rv-vsrt.khhw~ph28", ":created_at": "2024-12-06T17:43:47.558Z", ":updated_at": "2025-11-19T14:52:33.748Z", "acquisitiondate": "1935-04-11T00:00:00", "acres": "0.006", "address": null, "borough": "Q", "class": "PARK", "communityboard": "410", "councildistrict": "28", "department": "Q-10", "eapply": "Catholic War Veterans Square", "gisobjid": "100000132", "gispropnum": "Q148", "globalid": "53012543-6134-4EB1-BF5B-4161618CEF6B", "jurisdiction": "DPR", "location": "Rockaway Blvd. 116 Ave., 122 St.", "mapped": "False", "name311": "Catholic War Veterans Square", "nys_assembly": "31", "nys_senate": "10", "objectid": "169761", "omppropid": "Q148", "parentid": "Q-10", "permit": 1.0, "permitdistrict": "Q-10", "permitparent": "Q-10", "pip_ratable": 1.0, "precinct": "106", "retired": false, "signname": "Catholic War Veterans Square", "subcategory": "Sitting Area/Triangle/Mall", "typecategory": "Triangle/Plaza", "us_congress": "5", "waterfront": false, "zipcode": "11420", "osm_fixed": true, "osm_fix_message": "Matched with OSM 'Catholic War Veterans Square' (overlap: 100.0%)" }, "geometry": { "type": "MultiPolygon", "coordinates": [ [ [ [ -73.8164944, 40.6758739 ], [ -73.8161396, 40.6758475 ], [ -73.8162028, 40.675959 ], [ -73.8164944, 40.6758739 ] ] ] ] } },
{ "type": "Feature", "properties": { ":id": "row-cyyp-hhy5_29nw", ":version": "rv-nnit.bs6n.esf9", ":created_at": "2024-12-06T17:43:47.558Z", ":updated_at": "2025-11-19T14:52:33.748Z", "acquisitiondate": "1930-12-17T00:00:00", "acres": "0.008", "address": null, "borough": "Q", "class": "PARK", "communityboard": "410", "councildistrict": "28", "department": "Q-10", "eapply": "Wellbrock Triangle", "gisobjid": "100000187", "gispropnum": "Q079", "globalid": "9088A2CF-95A9-43F5-8CB1-5FCB85AF5398", "jurisdiction": "DPR", "location": "109 Ave., 106 St., Rockaway Blvd.", "mapped": "True", "name311": "Wellbrock Triangle", "nys_assembly": "31", "nys_senate": "15", "objectid": "169749", "omppropid": "Q079", "parentid": "Q-10", "permit": 0.0, "permitdistrict": "Q-10", "permitparent": "Q-10", "pip_ratable": 1.0, "precinct": "106", "retired": false, "signname": "Wellbrock Triangle", "subcategory": "Sitting Area/Triangle/Mall", "typecategory": "Triangle/Plaza", "us_congress": "5", "waterfront": false, "zipcode": "11417", "osm_fixed": true, "osm_fix_message": "Matched with OSM 'Wellbrook Triangle' (overlap: 47.3%)" }, "geometry": { "type": "MultiPolygon", "coordinates": [ [ [ [ -73.8336972, 40.6788806 ], [ -73.8335553, 40.6789235 ], [ -73.8335085, 40.6788344 ], [ -73.8336972, 40.6788806 ] ] ] ] } },
{ "type": "Feature", "properties": { ":id": "row-mnek_ivw9_7zuh", ":version": "rv-ugm3~y6gs.dgpz", ":created_at": "2024-12-06T17:43:47.558Z", ":updated_at": "2025-11-19T14:52:33.748Z", "acquisitiondate": "1918-06-06T00:00:00", "acres": "0.002", "address": null, "borough": "Q", "class": "PARK", "communityboard": "404", "councildistrict": "25", "department": "Q-04", "eapply": "Middleburgh Triangle", "gisobjid": "100000152", "gispropnum": "Q069", "globalid": "7E90C1F6-BF82-40B0-9534-ECF3AE24EFF2", "jurisdiction": "DPR", "location": "Corona Ave., 90 St., 48 Ave.", "mapped": "True", "name311": "Middleburgh Triangle", "nys_assembly": "30", "nys_senate": "12", "objectid": "169745", "omppropid": "Q069", "parentid": "Q-04", "permit": 0.0, "permitdistrict": "Q-04", "permitparent": "Q-04", "pip_ratable": 1.0, "precinct": "110", "retired": false, "signname": "Middleburgh Triangle", "subcategory": "Sitting Area/Triangle/Mall", "typecategory": "Triangle/Plaza", "us_congress": "6", "waterfront": false, "zipcode": "11373", "osm_fixed": true, "osm_fix_message": "Matched with OSM 'Middleburgh Triangle' (overlap: 100.0%)" }, "geometry": { "type": "MultiPolygon", "coordinates": [ [ [ [ -73.8750213, 40.7413946 ], [ -73.8752155, 40.741259 ], [ -73.874947, 40.7413177 ], [ -73.8750213, 40.7413946 ] ] ] ] } },
{ "type": "Feature", "properties": { ":id": "row-2hxt-3ruf-b3wk", ":version": "rv-wsdc.yqhi-ekpt", ":created_at": "2024-12-06T17:43:47.558Z", ":updated_at": "2025-11-19T14:52:33.748Z", "acquisitiondate": "1933-11-02T00:00:00", "acres": "0.03", "address": null, "borough": "Q", "class": "PARK", "communityboard": "403", "councildistrict": "22", "department": "Q-03", "eapply": "O'Sullivan Plaza", "gisobjid": "100000374", "gispropnum": "Q160", "globalid": "CB937A32-F36C-478C-9423-F5DE5E505134", "jurisdiction": "DPR", "location": "Astoria Blvd., 25 Ave., 88 St.", "mapped": "True", "name311": "O'Sullivan Plaza", "nys_assembly": "35", "nys_senate": "13", "objectid": "169627", "omppropid": "Q160", "parentid": "Q-03", "permit": 0.0, "permitdistrict": "Q-03", "permitparent": "Q-03", "pip_ratable": 1.0, "precinct": "115", "retired": false, "signname": "O'Sullivan Plaza", "subcategory": "Sitting Area/Triangle/Mall", "typecategory": "Triangle/Plaza", "us_congress": "14", "waterfront": false, "zipcode": "11369", "osm_fixed": true, "osm_fix_message": "Matched with OSM 'O'Sullivan Plaza' (overlap: 100.0%)" }, "geometry": { "type": "MultiPolygon", "coordinates": [ [ [ [ -73.8810684, 40.7638138 ], [ -73.881045, 40.7637046 ], [ -73.8807515, 40.7637328 ], [ -73.8807773, 40.7637701 ], [ -73.8810684, 40.7638138 ] ] ] ] } },
{ "type": "Feature", "properties": { ":id": "row-2km6.y89y~pv89", ":version": "rv-f9x4-jrgc-m26q", ":created_at": "2024-12-06T17:43:47.558Z", ":updated_at": "2025-11-19T14:52:33.748Z", "acquisitiondate": null, "acres": "0.004", "address": null, "borough": "B", "class": "PARK", "communityboard": "302", "councildistrict": "35", "department": "B-02", "eapply": null, "gisobjid": null, "gispropnum": "B606", "globalid": "A0A50EA0-8855-4258-A1ED-84CC29328F83", "jurisdiction": "DPR", "location": "Fulton St., S Elliot Pl., and Lafayette Ave.", "mapped": "False", "name311": "Fowler Square", "nys_assembly": "57", "nys_senate": "26", "objectid": "174845", "omppropid": "B606", "parentid": "B-02", "permit": null, "permitdistrict": "B-02", "permitparent": "B-02", "pip_ratable": 0.0, "precinct": "88", "retired": false, "signname": "Fowler Square", "subcategory": null, "typecategory": "Triangle/Plaza", "us_congress": "10", "waterfront": false, "zipcode": "11217", "osm_fixed": true, "osm_fix_message": "Matched with OSM 'Fowler Square' (overlap: 100.0%)" }, "geometry": { "type": "MultiPolygon", "coordinates": [ [ [ [ -73.9754836, 40.6870621 ], [ -73.9756668, 40.6870425 ], [ -73.9759036, 40.6870192 ], [ -73.9759324, 40.6870153 ], [ -73.9759432, 40.6870069 ], [ -73.9759415, 40.6869866 ], [ -73.9759237, 40.686976 ], [ -73.9755518, 40.6868264 ], [ -73.9754422, 40.6867798 ], [ -73.9754836, 40.6870621 ] ] ], [ [ [ -73.9754422, 40.6867798 ], [ -73.9754448, 40.6868049 ], [ -73.9754738, 40.6870172 ], [ -73.9754836, 40.6870621 ], [ -73.9754422, 40.6867798 ] ] ] ] } },
{ "type": "Feature", "properties": { ":id": "row-9kkg.gehr~dasq", ":version": "rv-ixed-nei5-j9ar", ":created_at": "2024-12-06T17:43:47.558Z", ":updated_at": "2025-11-19T14:52:33.748Z", "acquisitiondate": "1916-09-01T00:00:00", "acres": "0.001", "address": null, "borough": "Q", "class": "PARK", "communityboard": "405", "councildistrict": "30", "department": "Q-05", "eapply": "Luke J. Lang Square", "gisobjid": "100000017", "gispropnum": "Q063", "globalid": "4D8CE03D-0463-46EC-BC2E-B0CB95F64816", "jurisdiction": "DPR", "location": "Fresh Pond Rd., 59 Rd. and 61 St.", "mapped": "True", "name311": "Luke J. Lang Square", "nys_assembly": "37", "nys_senate": "12", "objectid": "170070", "omppropid": "Q063", "parentid": "Q-05", "permit": 0.0, "permitdistrict": "Q-05", "permitparent": "Q-05", "pip_ratable": 1.0, "precinct": "104", "retired": false, "signname": "Luke J. Lang Square", "subcategory": "Sitting Area/Triangle/Mall", "typecategory": "Triangle/Plaza", "us_congress": "6", "waterfront": false, "zipcode": "11378", "osm_fixed": true, "osm_fix_message": "Matched with OSM 'Luke J. Lang Square' (overlap: 100.0%)" }, "geometry": { "type": "MultiPolygon", "coordinates": [ [ [ [ -73.9024437, 40.7185946 ], [ -73.9023961, 40.7186045 ], [ -73.9023889, 40.7186025 ], [ -73.9023797, 40.7185974 ], [ -73.9023733, 40.718588 ], [ -73.9023699, 40.7185632 ], [ -73.9023638, 40.7185408 ], [ -73.9023678, 40.7185364 ], [ -73.9023735, 40.7185313 ], [ -73.9023798, 40.7185313 ], [ -73.9023921, 40.718532 ], [ -73.9024498, 40.718576 ], [ -73.9024484, 40.7185856 ], [ -73.9024437, 40.7185946 ] ] ] ] } },
{ "type": "Feature", "properties": { ":id": "row-jd95_dw66-vbrq", ":version": "rv-z5fj.6rkk~t7jg", ":created_at": "2024-12-06T17:43:47.558Z", ":updated_at": "2025-11-19T14:52:33.748Z", "acquisitiondate": null, "acres": "0.004", "address": null, "borough": "Q", "class": "PARK", "communityboard": "401", "councildistrict": "26", "department": "Q-01", "eapply": "Corporal Frank F. Fagan Sq.", "gisobjid": "100000379", "gispropnum": "Q254", "globalid": "902E9015-3EF4-4334-8120-9BC95C0BD409", "jurisdiction": "DPR", "location": "48 St., Newtown Rd., Broadway", "mapped": "False", "name311": "Corporal Frank F. Fagan Sq.", "nys_assembly": "34", "nys_senate": "12", "objectid": "169778", "omppropid": "Q254", "parentid": "Q-01", "permit": 0.0, "permitdistrict": "Q-01", "permitparent": "Q-01", "pip_ratable": 1.0, "precinct": "114", "retired": false, "signname": "Corporal Frank F. Fagan Sq.", "subcategory": "Sitting Area/Triangle/Mall", "typecategory": "Triangle/Plaza", "us_congress": "7", "waterfront": false, "zipcode": "11377", "osm_fixed": true, "osm_fix_message": "Matched with OSM 'Fagan Square' (overlap: 100.0%)" }, "geometry": { "type": "MultiPolygon", "coordinates": [ [ [ [ -73.9124982, 40.7560109 ], [ -73.9124168, 40.7560899 ], [ -73.9123369, 40.7559624 ], [ -73.9123484, 40.7559437 ], [ -73.9124982, 40.7560109 ] ] ] ] } },
{ "type": "Feature", "properties": { ":id": "row-cyti~ha2g-pmg7", ":version": "rv-95dz~2b9d~nkv5", ":created_at": "2024-12-06T17:43:47.558Z", ":updated_at": "2025-11-19T14:52:33.748Z", "acquisitiondate": "1960-11-21T00:00:00", "acres": "0.026", "address": null, "borough": "Q", "class": "PARK", "communityboard": "403", "councildistrict": "22", "department": "Q-03", "eapply": null, "gisobjid": "100008370", "gispropnum": "Q504", "globalid": "EB14EA27-DA50-4E69-9412-D6FCB97C6DD6", "jurisdiction": "DPR", "location": "Astoria Blvd., 24 Ave., 81 St.", "mapped": "True", "name311": "Park", "nys_assembly": "35", "nys_senate": "13", "objectid": "169626", "omppropid": "Q504", "parentid": "Q-03", "permit": 0.0, "permitdistrict": "Q-03", "permitparent": "Q-03", "pip_ratable": 0.0, "precinct": "115", "retired": false, "signname": "Park", "subcategory": "Sitting Area/Triangle/Mall", "typecategory": "Triangle/Plaza", "us_congress": "14", "waterfront": false, "zipcode": "11369", "osm_fixed": true, "osm_fix_message": "Matched with OSM '' (overlap: 17.7%)" }, "geometry": { "type": "MultiPolygon", "coordinates": [ [ [ [ -73.8872378, 40.7648986 ], [ -73.8872503, 40.7649046 ], [ -73.88727, 40.764908 ], [ -73.887933, 40.7650105 ], [ -73.8879632, 40.7650058 ], [ -73.8879694, 40.7649965 ], [ -73.8879786, 40.7649829 ], [ -73.887953, 40.764859 ], [ -73.8879428, 40.7648517 ], [ -73.8879207, 40.7648471 ], [ -73.8879054, 40.7648486 ], [ -73.8874002, 40.7648831 ], [ -73.8872378, 40.7648986 ] ] ] ] } }
]
}
